ELECTRON KICK STAGE R/B 
1 66555U 25267B   25334.46361691  .00025902  00000+0  82617-3 0  9996
2 66555  42.0172 127.7902 0007602 326.1836  33.8516 15.31955183  1522
CZ-3B R/B               
1 66587U 25269B   25327.51390516  .00010320 -91384-6  49597-3 0  9990
2 66587  51.3768 174.0599 7525341 225.2938  41.2116  2.01516013    67
KSLV-II R/B             
1 66663U 25274P   25334.79557336 -.00003586  00000+0 -29874-3 0  9995
2 66663  97.7404 262.2533 0044329 358.2629   1.8431 14.97216641   626
